{
  "type": "FeatureCollection",
  "features": [
    {
      "type": "Feature",
      "properties": {
        "norad_id": 33376,
        "name": "GALAXY 19 (G-19)",
        "group": "intelsat",
        "lat": -0.039081917777708,
        "lon": -142.34608321483108,
        "alt_km": 35781.12723658527,
        "timestamp": "2025-12-23T14:49:08.997745+00:00",
        "meta_object_name": "GALAXY 19 (G-19)",
        "meta_object_id": "2008-045A",
        "meta_epoch": "2025-12-23T04:06:38.241216",
        "meta_mean_motion": 1.00270979,
        "meta_eccentricity": 0.0002622,
        "meta_inclination": 0.0461,
        "meta_ra_of_asc_node": 265.7116,
        "meta_arg_of_pericenter": 14.076,
        "meta_mean_anomaly": 136.833,
        "meta_ephemeris_type": 0,
        "meta_classification_type": "U",
        "meta_norad_cat_id": 33376,
        "meta_element_set_no": 999,
        "meta_rev_at_epoch": 6313,
        "meta_bstar": 0,
        "meta_mean_motion_dot": -1.18e-06,
        "meta_mean_motion_ddot": 0,
        "tle_line1": "1 33376U 08045A   25357.17127594 -.00000118  00000+0  00000+0 0  9996",
        "tle_line2": "2 33376   0.0461 265.7116 0002622  14.0760 136.8330  1.00270979 63135"
      },
      "geometry": {
        "type": "Point",
        "coordinates": [
          -142.34608321483108,
          -0.039081917777708
        ]
      }
    },
    {
      "type": "Feature",
      "properties": {
        "norad_id": 35493,
        "name": "FM-5",
        "group": "intelsat",
        "lat": -0.026454405056953817,
        "lon": -131.4431279052698,
        "alt_km": 35785.25136208158,
        "timestamp": "2025-12-23T14:49:08.997758+00:00",
        "meta_object_name": "FM-5",
        "meta_object_id": "2009-034A",
        "meta_epoch": "2025-12-23T04:09:45.442368",
        "meta_mean_motion": 1.00270341,
        "meta_eccentricity": 9.906e-05,
        "meta_inclination": 0.0237,
        "meta_ra_of_asc_node": 288.9102,
        "meta_arg_of_pericenter": 227.6165,
        "meta_mean_anomaly": 271.7426,
        "meta_ephemeris_type": 0,
        "meta_classification_type": "U",
        "meta_norad_cat_id": 35493,
        "meta_element_set_no": 999,
        "meta_rev_at_epoch": 4487,
        "meta_bstar": 0,
        "meta_mean_motion_dot": -1.79e-06,
        "meta_mean_motion_ddot": 0,
        "tle_line1": "1 35493U 09034A   25357.17344262 -.00000179  00000+0  00000+0 0  9997",
        "tle_line2": "2 35493   0.0237 288.9102 0000990 227.6165 271.7426  1.00270341 44875"
      },
      "geometry": {
        "type": "Point",
        "coordinates": [
          -131.4431279052698,
          -0.026454405056953817
        ]
      }
    },
    {
      "type": "Feature",
      "properties": {
        "norad_id": 36097,
        "name": "INTELSAT 14 (IS-14)",
        "group": "intelsat",
        "lat": -0.033555234490837964,
        "lon": -90.32792361907116,
        "alt_km": 35776.220479845986,
        "timestamp": "2025-12-23T14:49:08.997770+00:00",
        "meta_object_name": "INTELSAT 14 (IS-14)",
        "meta_object_id": "2009-064A",
        "meta_epoch": "2025-12-23T06:04:11.931168",
        "meta_mean_motion": 1.00269655,
        "meta_eccentricity": 0.00025633,
        "meta_inclination": 0.0106,
        "meta_ra_of_asc_node": 353.0362,
        "meta_arg_of_pericenter": 291.3551,
        "meta_mean_anomaly": 213.7007,
        "meta_ephemeris_type": 0,
        "meta_classification_type": "U",
        "meta_norad_cat_id": 36097,
        "meta_element_set_no": 999,
        "meta_rev_at_epoch": 5884,
        "meta_bstar": 0,
        "meta_mean_motion_dot": -2.52e-06,
        "meta_mean_motion_ddot": 0,
        "tle_line1": "1 36097U 09064A   25357.25291587 -.00000252  00000+0  00000+0 0  9993",
        "tle_line2": "2 36097   0.0106 353.0362 0002563 291.3551 213.7007  1.00269655 58847"
      },
      "geometry": {
        "type": "Point",
        "coordinates": [
          -90.32792361907116,
          -0.033555234490837964
        ]
      }
    },
    {
      "type": "Feature",
      "properties": {
        "norad_id": 36106,
        "name": "INTELSAT 15 (IS-15)",
        "group": "intelsat",
        "lat": 0.02185271957644515,
        "lon": 39.86959231552335,
        "alt_km": 35790.4491264962,
        "timestamp": "2025-12-23T14:49:08.997783+00:00",
        "meta_object_name": "INTELSAT 15 (IS-15)",
        "meta_object_id": "2009-067A",
        "meta_epoch": "2025-12-22T22:07:47.916768",
        "meta_mean_motion": 1.00271269,
        "meta_eccentricity": 0.000223,
        "meta_inclination": 0.0177,
        "meta_ra_of_asc_node": 8.1154,
        "meta_arg_of_pericenter": 275.52,
        "meta_mean_anomaly": 225.1959,
        "meta_ephemeris_type": 0,
        "meta_classification_type": "U",
        "meta_norad_cat_id": 36106,
        "meta_element_set_no": 999,
        "meta_rev_at_epoch": 3946,
        "meta_bstar": 0,
        "meta_mean_motion_dot": -1.64e-06,
        "meta_mean_motion_ddot": 0,
        "tle_line1": "1 36106U 09067A   25356.92208237 -.00000164  00000+0  00000+0 0  9992",
        "tle_line2": "2 36106   0.0177   8.1154 0002230 275.5200 225.1959  1.00271269 39463"
      },
      "geometry": {
        "type": "Point",
        "coordinates": [
          39.86959231552335,
          0.02185271957644515
        ]
      }
    },
    {
      "type": "Feature",
      "properties": {
        "norad_id": 36131,
        "name": "DIRECTV 12",
        "group": "intelsat",
        "lat": 0.0022242982543057687,
        "lon": -148.0322938182328,
        "alt_km": 35787.63325609117,
        "timestamp": "2025-12-23T14:49:08.997796+00:00",
        "meta_object_name": "DIRECTV 12",
        "meta_object_id": "2009-075A",
        "meta_epoch": "2025-12-23T03:20:33.607968",
        "meta_mean_motion": 1.00270962,
        "meta_eccentricity": 4.713e-05,
        "meta_inclination": 0.0146,
        "meta_ra_of_asc_node": 102.798,
        "meta_arg_of_pericenter": 240.9424,
        "meta_mean_anomaly": 55.6205,
        "meta_ephemeris_type": 0,
        "meta_classification_type": "U",
        "meta_norad_cat_id": 36131,
        "meta_element_set_no": 999,
        "meta_rev_at_epoch": 4478,
        "meta_bstar": 0,
        "meta_mean_motion_dot": -8.2e-07,
        "meta_mean_motion_ddot": 0,
        "tle_line1": "1 36131U 09075A   25357.13927787 -.00000082  00000+0  00000+0 0  9990",
        "tle_line2": "2 36131   0.0146 102.7980 0000471 240.9424  55.6205  1.00270962 44784"
      },
      "geometry": {
        "type": "Point",
        "coordinates": [
          -148.0322938182328,
          0.0022242982543057687
        ]
      }
    },
    {
      "type": "Feature",
      "properties": {
        "norad_id": 36397,
        "name": "INTELSAT 16 (IS-16)",
        "group": "intelsat",
        "lat": -0.02754303097016322,
        "lon": -121.5243596432912,
        "alt_km": 35780.05294160653,
        "timestamp": "2025-12-23T14:49:08.997809+00:00",
        "meta_object_name": "INTELSAT 16 (IS-16)",
        "meta_object_id": "2010-006A",
        "meta_epoch": "2025-12-23T03:25:52.919904",
        "meta_mean_motion": 1.00270396,
        "meta_eccentricity": 0.00018499,
        "meta_inclination": 0.0127,
        "meta_ra_of_asc_node": 322.8693,
        "meta_arg_of_pericenter": 309.952,
        "meta_mean_anomaly": 154.3908,
        "meta_ephemeris_type": 0,
        "meta_classification_type": "U",
        "meta_norad_cat_id": 36397,
        "meta_element_set_no": 999,
        "meta_rev_at_epoch": 5788,
        "meta_bstar": 0,
        "meta_mean_motion_dot": -2.23e-06,
        "meta_mean_motion_ddot": 0,
        "tle_line1": "1 36397U 10006A   25357.14297361 -.00000223  00000+0  00000+0 0  9996",
        "tle_line2": "2 36397   0.0127 322.8693 0001849 309.9520 154.3908  1.00270396 57889"
      },
      "geometry": {
        "type": "Point",
        "coordinates": [
          -121.5243596432912,
          -0.02754303097016322
        ]
      }
    },
    {
      "type": "Feature",
      "properties": {
        "norad_id": 37185,
        "name": "XM-5",
        "group": "intelsat",
        "lat": -0.06319681634434966,
        "lon": -160.48353072664293,
        "alt_km": 35780.2645348172,
        "timestamp": "2025-12-23T14:49:08.997822+00:00",
        "meta_object_name": "XM-5",
        "meta_object_id": "2010-053A",
        "meta_epoch": "2025-12-23T00:36:02.072736",
        "meta_mean_motion": 1.00270944,
        "meta_eccentricity": 0.00022817,
        "meta_inclination": 0.0686,
        "meta_ra_of_asc_node": 269.8014,
        "meta_arg_of_pericenter": 238.9496,
        "meta_mean_anomaly": 196.8907,
        "meta_ephemeris_type": 0,
        "meta_classification_type": "U",
        "meta_norad_cat_id": 37185,
        "meta_element_set_no": 999,
        "meta_rev_at_epoch": 5571,
        "meta_bstar": 0,
        "meta_mean_motion_dot": -2e-08,
        "meta_mean_motion_ddot": 0,
        "tle_line1": "1 37185U 10053A   25357.02502399 -.00000002  00000+0  00000+0 0  9996",
        "tle_line2": "2 37185   0.0686 269.8014 0002281 238.9496 196.8907  1.00270944 55715"
      },
      "geometry": {
        "type": "Point",
        "coordinates": [
          -160.48353072664293,
          -0.06319681634434966
        ]
      }
    }
  ]
}